# Made by eph2tle, compiled May  4 2023 13:19:02
# Run at Thu May 11 10:35:02 2023
#
# No updates (going to heliocentric orbit)
#
#    The following TLEs (Two-Line Elements) were generated by fitting
# a numerically-integrated ephemeris,  based on the orbit given below,
# to the SDP4/SGP4 models.  Each TLE is good for the interval between
# its epoch and the epoch of the subsequent TLE (usually one day).
# The maximum deviation between the numerically integrated ephemerides
# and the TLE-based ephemeris, in kilometers,  is given for each TLE
# as the "worst residual".
#
#    This fitting is done using the 'eph2tle' code packaged with Find_Orb.
# The code has details on how the TLEs were computed :
#
#    https://github.com/Bill-Gray/find_orb/eph2tle.cpp
#
#    Be warned:  the error given is that between the numerically
# integrated ephems and the TLE model.  There will usually be at
# least some additional difference between the ephems and the actual
# motion of the satellite,  especially if the ephemerides are based
# on a short arc.  If the following orbital elements say something
# like "[based on] 10 observations 2015 Jan. 1-13",  and the TLEs
# are for 2015 May,  the extrapolation may be tenuous at best.  If
# your application requires a specific level of accuracy,  you may
# want to contact me;  I can give you some idea as to the fit of the
# underlying data (and possibly TLEs based on newer data).
#
#   You can usually find the underlying observational data,  and the
# fitted orbit,  residuals,  ephemerides,  and sometimes some comments
# about the object,  among the pages listed at
#
#    https://www.projectpluto.com/pluto/mpecs/pseudo.htm
#
#    WARNING:  for this object,  "normal" TLEs cannot be fitted.  (This
# usually means an object with an hyperbolic or nearly-parabolic orbit.)
# For this and similar cases,   an alternative model is used,  in which
# most of the traditional TLE data is replaced by six signed 8-digit hex
# numbers.  These six numbers are a state vector,  numerically integrated
# using a simplified force model.  This is necessary for objects at L2 or
# L1,  and sometimes for objects in high orbits where the SDP4/SGP4 model
# fails.  Some documentation is in 'get_el.cpp' in the source code at
# https://www.github.com/Bill-Gray/sat_code ; look for 'hex' in that file,
# with the actual integration done in 'sdp4.cpp'.  But be aware:  it's my
# own extension,  doesn't work with other code,  and is therefore used
# only when necessary.
#
#    Also,  if you use a TLE outside the "correct" time range (between
# its MJD and that of the next TLE),  all bets are off.  I've carefully
# computed and minimized the worst error over the "correct" time frame,
# but the ephemeris may (or may not) diverge wildly outside of it.
#
# Ephem range: 60048.600000 60157.600000 1.000000
# Created Thu May 11 10:34:57 2023
# Ephemeris start: 14 Apr 2023 14:24:00
# Ephemeris end:    1 Aug 2023 14:24:00
# Times are all TDT
# Positions/velocities are in equatorial J2000
# Orbital elements:  JUICE booster = 2023-053B = NORAD 56177
#    Perihelion 2023 Jan 1.4862573 +/- 4.67e-5 TT = 11:40:12.62 (JD 2459945.9862573)
# Epoch 2023 Apr 27.0 TT = JDT 2460061.5   Earth MOID: 0.0001      Find_Orb
# M 120.9974647770 +/- 0.000024       (J2000 ecliptic)
# n   1.0474724644 +/- 3.61e-7        Peri.   65.8134566 +/- 0.00029
# a   0.9602278674 +/- 2.21e-7        Node    18.5546835 +/- 0.00027
# e   0.112384956 +/- 4.95e-7         Incl.    0.0428386 +/- 0.0000017
# P   0.94/343.68d           H 26.90  G  0.15   U  2.8
# q 0.8523127000 +/- 6.68e-7    Q 1.0681430349 +/- 2.38e-7
# 182 of 243 observations 2023 Apr. 14-30; mean residual 0".527
#
# 1 NoradU COSPAR   Epoch.epoch     dn/dt/2  d2n/dt2/6 BSTAR    T El# C
# 2 NoradU Inclina RAAscNode Eccent  ArgPeri MeanAno  MeanMotion Rev# C

# Worst residual: 1.61 km
# MJD 60048.600000 (2023 Apr 14 14:24)
JUICE booster = 2023-053B = NORAD 56177
1 56177U 23053B   23104.59919926 -000LX1UO +00097G80 -00024Q1OH 19576
2 56177                          -000ULZSW +0000S614 -0001XPO6     08

# Worst residual: 2.95 km
# MJD 60049.600000 (2023 Apr 15 14:24)
JUICE booster = 2023-053B = NORAD 56177
1 56177U 23053B   23105.59919926 -005HZHP9 -0003NWT7 -000BRC3WH 19573
2 56177                          -000HU2B1 -0001NYZ0 -0000XWZP     05

# Worst residual: 7.80 km
# MJD 60050.600000 (2023 Apr 16 14:24)
JUICE booster = 2023-053B = NORAD 56177
1 56177U 23053B   23106.59919926 -009MTZ72 -000HWHMJ -000JKYPPH 19575
2 56177                          -000GTDGL -0001MRPD -0000VPTJ     02

# Worst residual: 1.64 km
# MJD 60051.600000 (2023 Apr 17 14:24)
JUICE booster = 2023-053B = NORAD 56177
1 56177U 23053B   23107.59919926 -00DM8JQ5 -000VXRF1 -000R3BGYH 19575
2 56177                          -000GFH0T -0001MB9O -0000UZNB     01

# Worst residual: 0.65 km
# MJD 60052.600000 (2023 Apr 18 14:24)
JUICE booster = 2023-053B = NORAD 56177
1 56177U 23053B   23108.59919926 -00HJAGIY -0019Y1KR -000YI11UH 19572
2 56177                          -000G8PP6 -0001MIFC -0000UTAL     06

# Worst residual: 0.73 km
# MJD 60053.600000 (2023 Apr 19 14:24)
JUICE booster = 2023-053B = NORAD 56177
1 56177U 23053B   23109.59919926 -00LF5KLN -001O2DNM -0015WQS5H 19579
2 56177                          -000G57CT -0001N8FY -0000UYYI     02

# Worst residual: 0.80 km
# MJD 60054.600000 (2023 Apr 20 14:24)
JUICE booster = 2023-053B = NORAD 56177
1 56177U 23053B   23110.59919926 -00PAEP38 -0022EXGV -001DDXXCH 19578
2 56177                          -000G3GPL -0001OEH1 -0000VDN1     07

# Worst residual: 0.90 km
# MJD 60055.600000 (2023 Apr 21 14:24)
JUICE booster = 2023-053B = NORAD 56177
1 56177U 23053B   23111.59919926 -00T5DR67 -002H3AB6 -001KZKVVH 19573
2 56177                          -000G2SHK -0001PYID -0000VZQA     04

# Worst residual: 1.05 km
# MJD 60056.600000 (2023 Apr 22 14:24)
JUICE booster = 2023-053B = NORAD 56177
1 56177U 23053B   23112.59919926 -00X0A63N -002W6M24 -001SRAPTH 19578
2 56177                          -000G2SZC -0001RUY9 -0000WS4Y     07

# Worst residual: 1.27 km
# MJD 60057.600000 (2023 Apr 23 14:24)
JUICE booster = 2023-053B = NORAD 56177
1 56177U 23053B   23113.59919926 -010V8TM8 -003BRPXS -0020QI91H 19577
2 56177                          -000G3A3R -0001U2GK -0000XQ0X     00

# Worst residual: 1.51 km
# MJD 60058.600000 (2023 Apr 24 14:24)
JUICE booster = 2023-053B = NORAD 56177
1 56177U 23053B   23114.59919926 -014QD1ZP -003RX4MJ -0028YFTTH 19579
2 56177                          -000G42TB -0001WJXE -0000YSPY     08

# Worst residual: 1.72 km
# MJD 60059.600000 (2023 Apr 25 14:24)
JUICE booster = 2023-053B = NORAD 56177
1 56177U 23053B   23115.59919926 -018LP877 -0048P449 -002HG6JPH 19575
2 56177                          -000G53TX -0001ZAG6 -0000ZZOF     06

# Worst residual: 1.85 km
# MJD 60060.600000 (2023 Apr 26 14:24)
JUICE booster = 2023-053B = NORAD 56177
1 56177U 23053B   23116.59919926 -01CHB1UP -004Q5RDX -002Q8P9GH 19578
2 56177                          -000G6AXU -000229AO -00011AGG     02

# Worst residual: 1.91 km
# MJD 60061.600000 (2023 Apr 27 14:24)
JUICE booster = 2023-053B = NORAD 56177
1 56177U 23053B   23117.59919926 -01GD7SIM -0058CZPA -002ZCVCMH 19572
2 56177                          -000G7MLC -00025FVE -00012OOT     08

# Worst residual: 1.91 km
# MJD 60062.600000 (2023 Apr 28 14:24)
JUICE booster = 2023-053B = NORAD 56177
1 56177U 23053B   23118.59919926 -01K9GEDD -005RCLLO -0038TH9XH 19575
2 56177                          -000G91O9 -00028TO4 -00014629     06

# Worst residual: 1.90 km
# MJD 60063.600000 (2023 Apr 29 14:24)
JUICE booster = 2023-053B = NORAD 56177
1 56177U 23053B   23119.59919926 -01O61LCM -006B69IC -003IN8XYH 19571
2 56177                          -000GAJDH -0002CE8L -00015QAM     07

# Worst residual: 1.94 km
# MJD 60064.600000 (2023 Apr 30 14:24)
JUICE booster = 2023-053B = NORAD 56177
1 56177U 23053B   23120.59919926 -01S2ZXHM -006VVK3H -003SUTWPH 19578
2 56177                          -000GC34P -0002G55Q -00017D4G     02

# Worst residual: 2.05 km
# MJD 60065.600000 (2023 May  1 14:24)
JUICE booster = 2023-053B = NORAD 56177
1 56177U 23053B   23121.59919926 -01W0BUWQ -007HHYIQ -0043GTHUH 19579
2 56177                          -000GDOLK -0002K21D -000192AM     08

# Worst residual: 2.23 km
# MJD 60066.600000 (2023 May  2 14:24)
JUICE booster = 2023-053B = NORAD 56177
1 56177U 23053B   23122.59919926 -01ZY1RPM -00842UPT -004EHQXDH 19575
2 56177                          -000GFBNN -0002O4J0 -0001ATKR     08

# Worst residual: 2.43 km
# MJD 60067.600000 (2023 May  3 14:24)
JUICE booster = 2023-053B = NORAD 56177
1 56177U 23053B   23123.59919926 -023W61VF -008RNJY3 -004PY3KFH 19576
2 56177                          -000GH0EA -0002SCD6 -0001CMRY     00

# Worst residual: 2.59 km
# MJD 60068.600000 (2023 May  4 14:24)
JUICE booster = 2023-053B = NORAD 56177
1 56177U 23053B   23124.59919926 -027UP539 -009G9BS3 -0051UBDXH 19570
2 56177                          -000GIR4A -0002WPFN -0001EHRQ     08

# Worst residual: 2.66 km
# MJD 60069.600000 (2023 May  5 14:24)
JUICE booster = 2023-053B = NORAD 56177
1 56177U 23053B   23125.59919926 -02BTNKD0 -00A5XFO2 -005E6TQVH 19578
2 56177                          -000GKKA0 -000317U2 -0001GEJP     05

# Worst residual: 2.62 km
# MJD 60070.600000 (2023 May  6 14:24)
JUICE booster = 2023-053B = NORAD 56177
1 56177U 23053B   23126.59919926 -02FT1YZB -00AWP735 -005R02I8H 19572
2 56177                          -000GMGE6 -00035VXY -0001ID8M     04

# Worst residual: 2.53 km
# MJD 60071.600000 (2023 May  7 14:24)
JUICE booster = 2023-053B = NORAD 56177
1 56177U 23053B   23127.59919926 -02JSX4L3 -00BOM233 -0064AJEIH 19577
2 56177                          -000GOFXF -0003AQFX -0001KE5F     00

# Worst residual: 2.47 km
# MJD 60072.600000 (2023 May  8 14:24)
JUICE booster = 2023-053B = NORAD 56177
1 56177U 23053B   23128.59919926 -02NT9W0W -00CHPNUO -006I2TI0H 19570
2 56177                          -000GQJ51 -0003FSAK -0001MHQS     01

